GUOWANG GROUP 20 OBJECT*
1 68134U 26047F   26081.53908163 -.00000024  00000+0  80292-4 0  9994
2 68134  50.0098  18.0376 0001549 290.5042  69.5697 14.03853988  1363
GUOWANG GROUP 20 OBJECT*
1 68135U 26047G   26081.61110949  .00000032  00000+0  11611-3 0  9997
2 68135  50.0130  17.7516 0002378 303.3923  56.6754 14.03554926  1388
GUOWANG GROUP 20 OBJECT*
1 68136U 26047H   26082.89133300 -.00000102  00000+0  31573-4 0  9994
2 68136  50.0075  12.5331 0001735 306.0179  54.0564 14.02326786  1554
GUOWANG GROUP 20 OBJECT*
1 68137U 26047J   26082.88983446 -.00000137  00000+0  91454-5 0  9991
2 68137  50.0081  12.5219 0000174 124.6965 235.3956 14.02259904  1567
CZ-8A R/B               
1 68138U 26047K   26083.26357383  .00000083  00000+0  12744-3 0  9992
2 68138  49.9541  10.4066 0044764 188.4070 171.6091 14.12230758  1616
SHIYAN-30 03            
1 68139U 26048A   26083.29591174  .00002325  00000+0  22941-3 0  9996
2 68139  35.0006  56.5161 0003727 322.2451  37.7992 14.91698354  1687
SHIYAN-30 04            
1 68140U 26048B   26083.29665346  .00002227  00000+0  21983-3 0  9997
2 68140  34.9921  56.5209 0002229 320.7396  39.3147 14.91708024  1689
CZ-2D R/B               
1 68141U 26048C   26083.20315809  .00001534  00000+0  13832-3 0  9999
2 68141  35.1299  56.9808 0014891  92.5334 267.7079 14.95544899  1676
STARLINK-36604          
1 68142U 26049A   26083.25002315 -.01820837  00000+0 -93234-2 0  9992
2 68142  97.2798 103.1678 0001290  85.2924  49.8912 15.84486767  2970
STARLINK-36995          
1 68143U 26049B   26083.25002315 -.01817116  00000+0 -92217-2 0  9999
2 68143  97.2799 103.1690 0001375  75.0291  63.8141 15.84663308  2961
STARLINK-37020          
1 68144U 26049C   26083.25002315 -.01889479  00000+0 -93817-2 0  9998
2 68144  97.2796 103.1725 0001551  87.6832  59.6860 15.84711244  2968
STARLINK-36244          
1 68145U 26049D   26083.25002315 -.01968149  00000+0 -99017-2 0  9999
2 68145  97.2788 103.1763 0001402  89.4174  67.2506 15.84564946  2974
