CCSDS_OMM_VERS = 2.0
CREATION_DATE  = 
ORIGINATOR     = 

OBJECT_NAME    = GUOWANG GROUP 20 OBJECT F
OBJECT_ID      = 2026-047F
CENTER_NAME    = EARTH
REF_FRAME      = TEME
TIME_SYSTEM    = UTC
MEAN_ELEMENT_THEORY = SGP/SGP4

EPOCH          = 2026-03-22T12:56:16.652832
MEAN_MOTION    = 14.03853988
ECCENTRICITY   = .00015499
INCLINATION    = 50.0098
RA_OF_ASC_NODE = 18.0376
ARG_OF_PERICENTER = 290.5042
MEAN_ANOMALY   = 69.5697

EPHEMERIS_TYPE = 0
CLASSIFICATION_TYPE = U
NORAD_CAT_ID   = 68134
ELEMENT_SET_NO = 999
REV_AT_EPOCH   = 136
BSTAR          = .80291987E-4
MEAN_MOTION_DOT = -.24E-6
MEAN_MOTION_DDOT = 0

CCSDS_OMM_VERS = 2.0
CREATION_DATE  = 
ORIGINATOR     = 

OBJECT_NAME    = GUOWANG GROUP 20 OBJECT G
OBJECT_ID      = 2026-047G
CENTER_NAME    = EARTH
REF_FRAME      = TEME
TIME_SYSTEM    = UTC
MEAN_ELEMENT_THEORY = SGP/SGP4

EPOCH          = 2026-03-22T14:39:59.859936
MEAN_MOTION    = 14.03554926
ECCENTRICITY   = .00023781
INCLINATION    = 50.0130
RA_OF_ASC_NODE = 17.7516
ARG_OF_PERICENTER = 303.3923
MEAN_ANOMALY   = 56.6754

EPHEMERIS_TYPE = 0
CLASSIFICATION_TYPE = U
NORAD_CAT_ID   = 68135
ELEMENT_SET_NO = 999
REV_AT_EPOCH   = 138
BSTAR          = .11610707E-3
MEAN_MOTION_DOT = .32E-6
MEAN_MOTION_DDOT = 0

CCSDS_OMM_VERS = 2.0
CREATION_DATE  = 
ORIGINATOR     = 

OBJECT_NAME    = GUOWANG GROUP 20 OBJECT H
OBJECT_ID      = 2026-047H
CENTER_NAME    = EARTH
REF_FRAME      = TEME
TIME_SYSTEM    = UTC
MEAN_ELEMENT_THEORY = SGP/SGP4

EPOCH          = 2026-03-23T21:23:31.171200
MEAN_MOTION    = 14.02326786
ECCENTRICITY   = .00017354
INCLINATION    = 50.0075
RA_OF_ASC_NODE = 12.5331
ARG_OF_PERICENTER = 306.0179
MEAN_ANOMALY   = 54.0564

EPHEMERIS_TYPE = 0
CLASSIFICATION_TYPE = U
NORAD_CAT_ID   = 68136
ELEMENT_SET_NO = 999
REV_AT_EPOCH   = 155
BSTAR          = .31572633E-4
MEAN_MOTION_DOT = -.102E-5
MEAN_MOTION_DDOT = 0

CCSDS_OMM_VERS = 2.0
CREATION_DATE  = 
ORIGINATOR     = 

OBJECT_NAME    = GUOWANG GROUP 20 OBJECT J
OBJECT_ID      = 2026-047J
CENTER_NAME    = EARTH
REF_FRAME      = TEME
TIME_SYSTEM    = UTC
MEAN_ELEMENT_THEORY = SGP/SGP4

EPOCH          = 2026-03-23T21:21:21.697344
MEAN_MOTION    = 14.02259904
ECCENTRICITY   = .00001747
INCLINATION    = 50.0081
RA_OF_ASC_NODE = 12.5219
ARG_OF_PERICENTER = 124.6965
MEAN_ANOMALY   = 235.3956

EPHEMERIS_TYPE = 0
CLASSIFICATION_TYPE = U
NORAD_CAT_ID   = 68137
ELEMENT_SET_NO = 999
REV_AT_EPOCH   = 156
BSTAR          = .9145445E-5
MEAN_MOTION_DOT = -.137E-5
MEAN_MOTION_DDOT = 0

CCSDS_OMM_VERS = 2.0
CREATION_DATE  = 
ORIGINATOR     = 

OBJECT_NAME    = CZ-8A R/B
OBJECT_ID      = 2026-047K
CENTER_NAME    = EARTH
REF_FRAME      = TEME
TIME_SYSTEM    = UTC
MEAN_ELEMENT_THEORY = SGP/SGP4

EPOCH          = 2026-03-24T06:19:32.778912
MEAN_MOTION    = 14.12230758
ECCENTRICITY   = .00447644
INCLINATION    = 49.9541
RA_OF_ASC_NODE = 10.4066
ARG_OF_PERICENTER = 188.4070
MEAN_ANOMALY   = 171.6091

EPHEMERIS_TYPE = 0
CLASSIFICATION_TYPE = U
NORAD_CAT_ID   = 68138
ELEMENT_SET_NO = 999
REV_AT_EPOCH   = 161
BSTAR          = .12744173E-3
MEAN_MOTION_DOT = .83E-6
MEAN_MOTION_DDOT = 0

CCSDS_OMM_VERS = 2.0
CREATION_DATE  = 
ORIGINATOR     = 

OBJECT_NAME    = SHIYAN-30 03
OBJECT_ID      = 2026-048A
CENTER_NAME    = EARTH
REF_FRAME      = TEME
TIME_SYSTEM    = UTC
MEAN_ELEMENT_THEORY = SGP/SGP4

EPOCH          = 2026-03-24T07:06:06.774336
MEAN_MOTION    = 14.91698354
ECCENTRICITY   = .00037273
INCLINATION    = 35.0006
RA_OF_ASC_NODE = 56.5161
ARG_OF_PERICENTER = 322.2451
MEAN_ANOMALY   = 37.7992

EPHEMERIS_TYPE = 0
CLASSIFICATION_TYPE = U
NORAD_CAT_ID   = 68139
ELEMENT_SET_NO = 999
REV_AT_EPOCH   = 168
BSTAR          = .22941123E-3
MEAN_MOTION_DOT = .2325E-4
MEAN_MOTION_DDOT = 0

CCSDS_OMM_VERS = 2.0
CREATION_DATE  = 
ORIGINATOR     = 

OBJECT_NAME    = SHIYAN-30 04
OBJECT_ID      = 2026-048B
CENTER_NAME    = EARTH
REF_FRAME      = TEME
TIME_SYSTEM    = UTC
MEAN_ELEMENT_THEORY = SGP/SGP4

EPOCH          = 2026-03-24T07:07:10.858944
MEAN_MOTION    = 14.91708024
ECCENTRICITY   = .00022298
INCLINATION    = 34.9921
RA_OF_ASC_NODE = 56.5209
ARG_OF_PERICENTER = 320.7396
MEAN_ANOMALY   = 39.3147

EPHEMERIS_TYPE = 0
CLASSIFICATION_TYPE = U
NORAD_CAT_ID   = 68140
ELEMENT_SET_NO = 999
REV_AT_EPOCH   = 168
BSTAR          = .21983467E-3
MEAN_MOTION_DOT = .2227E-4
MEAN_MOTION_DDOT = 0

CCSDS_OMM_VERS = 2.0
CREATION_DATE  = 
ORIGINATOR     = 

OBJECT_NAME    = CZ-2D R/B
OBJECT_ID      = 2026-048C
CENTER_NAME    = EARTH
REF_FRAME      = TEME
TIME_SYSTEM    = UTC
MEAN_ELEMENT_THEORY = SGP/SGP4

EPOCH          = 2026-03-24T04:52:32.858976
MEAN_MOTION    = 14.95544899
ECCENTRICITY   = .00148913
INCLINATION    = 35.1299
RA_OF_ASC_NODE = 56.9808
ARG_OF_PERICENTER = 92.5334
MEAN_ANOMALY   = 267.7079

EPHEMERIS_TYPE = 0
CLASSIFICATION_TYPE = U
NORAD_CAT_ID   = 68141
ELEMENT_SET_NO = 999
REV_AT_EPOCH   = 167
BSTAR          = .13832397E-3
MEAN_MOTION_DOT = .1534E-4
MEAN_MOTION_DDOT = 0

CCSDS_OMM_VERS = 2.0
CREATION_DATE  = 
ORIGINATOR     = 

OBJECT_NAME    = STARLINK-36604
OBJECT_ID      = 2026-049A
CENTER_NAME    = EARTH
REF_FRAME      = TEME
TIME_SYSTEM    = UTC
MEAN_ELEMENT_THEORY = SGP/SGP4

EPOCH          = 2026-03-24T06:00:02.000160
MEAN_MOTION    = 15.84486767
ECCENTRICITY   = .00012901
INCLINATION    = 97.2798
RA_OF_ASC_NODE = 103.1678
ARG_OF_PERICENTER = 85.2924
MEAN_ANOMALY   = 49.8912

EPHEMERIS_TYPE = 0
CLASSIFICATION_TYPE = U
NORAD_CAT_ID   = 68142
ELEMENT_SET_NO = 999
REV_AT_EPOCH   = 297
BSTAR          = -.93234401E-2
MEAN_MOTION_DOT = -.1820837E-1
MEAN_MOTION_DDOT = 0

CCSDS_OMM_VERS = 2.0
CREATION_DATE  = 
ORIGINATOR     = 

OBJECT_NAME    = STARLINK-36995
OBJECT_ID      = 2026-049B
CENTER_NAME    = EARTH
REF_FRAME      = TEME
TIME_SYSTEM    = UTC
MEAN_ELEMENT_THEORY = SGP/SGP4

EPOCH          = 2026-03-24T06:00:02.000160
MEAN_MOTION    = 15.84663308
ECCENTRICITY   = .00013752
INCLINATION    = 97.2799
RA_OF_ASC_NODE = 103.1690
ARG_OF_PERICENTER = 75.0291
MEAN_ANOMALY   = 63.8141

EPHEMERIS_TYPE = 0
CLASSIFICATION_TYPE = U
NORAD_CAT_ID   = 68143
ELEMENT_SET_NO = 999
REV_AT_EPOCH   = 296
BSTAR          = -.92216911E-2
MEAN_MOTION_DOT = -.1817116E-1
MEAN_MOTION_DDOT = 0

CCSDS_OMM_VERS = 2.0
CREATION_DATE  = 
ORIGINATOR     = 

OBJECT_NAME    = STARLINK-37020
OBJECT_ID      = 2026-049C
CENTER_NAME    = EARTH
REF_FRAME      = TEME
TIME_SYSTEM    = UTC
MEAN_ELEMENT_THEORY = SGP/SGP4

EPOCH          = 2026-03-24T06:00:02.000160
MEAN_MOTION    = 15.84711244
ECCENTRICITY   = .00015513
INCLINATION    = 97.2796
RA_OF_ASC_NODE = 103.1725
ARG_OF_PERICENTER = 87.6832
MEAN_ANOMALY   = 59.6860

EPHEMERIS_TYPE = 0
CLASSIFICATION_TYPE = U
NORAD_CAT_ID   = 68144
ELEMENT_SET_NO = 999
REV_AT_EPOCH   = 296
BSTAR          = -.93817067E-2
MEAN_MOTION_DOT = -.1889479E-1
MEAN_MOTION_DDOT = 0

CCSDS_OMM_VERS = 2.0
CREATION_DATE  = 
ORIGINATOR     = 

OBJECT_NAME    = STARLINK-36244
OBJECT_ID      = 2026-049D
CENTER_NAME    = EARTH
REF_FRAME      = TEME
TIME_SYSTEM    = UTC
MEAN_ELEMENT_THEORY = SGP/SGP4

EPOCH          = 2026-03-24T06:00:02.000160
MEAN_MOTION    = 15.84564946
ECCENTRICITY   = .00014026
INCLINATION    = 97.2788
RA_OF_ASC_NODE = 103.1763
ARG_OF_PERICENTER = 89.4174
MEAN_ANOMALY   = 67.2506

EPHEMERIS_TYPE = 0
CLASSIFICATION_TYPE = U
NORAD_CAT_ID   = 68145
ELEMENT_SET_NO = 999
REV_AT_EPOCH   = 297
BSTAR          = -.99016767E-2
MEAN_MOTION_DOT = -.1968149E-1
MEAN_MOTION_DDOT = 0

